[{"OBJECT_NAME":"COSMO-SKYMED 2","OBJECT_ID":"2007-059A","EPOCH":"2026-03-09T23:42:47.291040","MEAN_MOTION":14.82166446,"ECCENTRICITY":0.00012683,"INCLINATION":97.8865,"RA_OF_ASC_NODE":254.0198,"ARG_OF_PERICENTER":84.565,"MEAN_ANOMALY":275.5708,"EPHEMERIS_TYPE":0,"CLASSIFICATION_TYPE":"U","NORAD_CAT_ID":32376,"ELEMENT_SET_NO":999,"REV_AT_EPOCH":98730,"BSTAR":9.1071047e-5,"MEAN_MOTION_DOT":6.73e-6,"MEAN_MOTION_DDOT":0},{"OBJECT_NAME":"FENGYUN 1C DEB","OBJECT_ID":"1999-025DP","EPOCH":"2026-03-09T09:16:15.155328","MEAN_MOTION":14.11543323,"ECCENTRICITY":0.03732255,"INCLINATION":98.8575,"RA_OF_ASC_NODE":127.5469,"ARG_OF_PERICENTER":234.9705,"MEAN_ANOMALY":185.0647,"EPHEMERIS_TYPE":0,"CLASSIFICATION_TYPE":"U","NORAD_CAT_ID":29821,"ELEMENT_SET_NO":999,"REV_AT_EPOCH":97733,"BSTAR":0.00086435981,"MEAN_MOTION_DOT":2.979e-5,"MEAN_MOTION_DDOT":0}]
